#dP2023  8 11  0  0  0.00000000     289 d+D   IGS20 FIT AIUB
## 2274 432000.00000000   300.00000000 60167 0.0000000000000
+  118   G01G02G03G04G05G06G07G08G09G10G11G12G13G14G15G16G17
+        G18G19G20G21G23G24G25G26G27G28G29G30G31G32R01R02R03
+        R04R05R07R08R09R11R12R13R14R15R16R17R18R19R20R21R22
+        R24R25E02E03E04E05E07E08E09E10E11E12E13E14E15E18E19
+        E21E24E25E26E27E30E31E33E34E36C06C07C08C09C10C11C12
+        C13C14C16C19C20C21C22C23C24C25C26C27C28C29C30C32C33
+        C34C35C36C37C38C39C40C41C42C43C44C45C46J02J03J04  0
++         5  5  5  5  5  5  5  5  5  5  5  5  5  5  5  5  5
++         5  5  5  5  5  5  5  5  5  5  5  5  5  5  5  5  5
++         5  5  5  5  5  5  5  5  5  5  5  5  5  5  5  5  5
++         5  5  5  5  5  5  5  5  5  5  5  5  5  5  5  5  5
++         5  5  8  5  5  5  5  5  5  5  5  5  5  5  5  5  5
++         5  5  5  5  5  5  5  5  5  5  5  5  5  5  5  5  5
++         5  5  5  5  5  5  5  5  5  5  5  5  5  5  5  5  0
%c M  cc GPS ccc cccc cccc cccc cccc ccccc ccccc ccccc ccccc
%c cc cc ccc ccc cccc cccc cccc cccc ccccc ccccc ccccc ccccc
%f  1.2500000  1.025000000  0.00000000000  0.000000000000000
%f  0.0000000  0.000000000  0.00000000000  0.000000000000000
%i    0    0    0    0      0      0      0      0         0
%i    0    0    0    0      0      0      0      0         0
/* Center for Orbit Determination in Europe (CODE)                              
/* MGEX orbits and clocks for year-day 2023-2230                                
/* Middle day of a 3-day long-arc multi-GNSS solution                           
/* Systems considered: GPS/GLONASS/Galileo/BeiDou/QZSS                          
/* Product reference - DOI 10.7892/boris.75882.3                                
/* PCV:IGS20      OL/AL:FES2014b NONE     YN ORB:CoN CLK:CoN                    
*  2023  8 11  7  0  0.00000000
PG01  14013.884079 -22065.540074  -3851.251359    169.046821
PG02  16559.733029 -20222.149178   4684.232426   -566.711673
PG03   9941.735583 -12997.034887 -21039.601555   -192.538175
PG04   3041.628681 -21489.986629 -15217.799948    122.154060
PG05 -23511.506106   5760.960932  10869.675556   -138.356198
PG06 -13754.822364  -5751.383253 -21929.944698    567.798709
PG07    566.223058 -20710.915512  16812.296281     99.117833
PG08  10609.147896 -12177.926342  20941.281685   -136.604213
PG09  -5412.595347 -24874.081051  -7572.806088    -89.590750
PG10  20691.880586  11165.091195  12840.398059    -48.807814
PG11 -20230.390551   7732.792502 -15330.886223   -315.657174
PG12 -14466.812382  11043.707417 -19591.706677   -411.519225
PG13 -14601.501887   3124.093932  21781.313517    558.657298
PG14 -17723.994870 -13382.746427  14709.680282    150.471343
PG15  -8733.467304  14286.882233  20093.944949     66.542994
PG16  25734.107080    389.223355   7140.940513   -469.725343
PG17 -13384.605538 -21222.122868  -8107.478128    722.542657
PG18    665.826188  19254.878821  18205.514951   -378.399291
PG19 -15661.514440 -15407.109810 -15369.183029    356.098576
PG20 -26414.115304   1478.551779    248.132690    417.854315
PG21  17367.821923 -18250.094613   7309.130527    150.912634
PG23   8975.227214  14655.175603  20301.402318     53.686795
PG24 -14739.441773  21737.394305   1480.335764   -286.186154
PG25    615.771571  15656.407844 -21775.820937    461.494304
PG26  26025.010091   4523.450325  -4327.247246    233.380346
PG27  16115.902090    923.293968  20914.307710    -19.931581
PG28  13135.047469   7736.129582 -21770.848883     77.147320
PG29   2801.306675  25131.842072  -8000.909089   -607.542997
PG30  -8063.151825 -14634.757085  20720.991542   -497.375713
PG31  19061.584064  -2882.035081 -18625.835903   -221.642504
PG32  16247.151547  17908.801981 -11034.886503   -538.443760
PR01 -15851.872706 -18790.189534  -6833.510369     63.222066
PR02 -19604.095533 -11688.714984  11361.411778    -22.576754
PR03 -12368.310565   2626.752052  22185.620478     83.050296
PR04   1556.339929  14904.407734  20671.248634    198.206623
PR05  14559.954216  19396.042845   7951.818297    117.122456
PR07  11857.469104  -3193.789907 -22329.097150     62.140827
PR08  -1759.733696 -15040.169784 -20462.441302    -72.108163
PR09  22283.196787   -794.663253 -12290.305360    136.047662
PR11  12126.501853 -12869.725684  18390.515725   -129.081609
PR12  -8132.431982  -8852.326481  22527.432748     30.027393
PR13 -21270.739063   -466.053884  14065.009981    -38.070477
PR14 -23242.395395   9458.340707  -4629.150467     25.045061
PR15 -10988.345942  12851.652724 -19076.138080     87.074291
PR16   7814.265101   8772.376469 -22621.353767     17.555150
PR17 -11724.173693  14923.710889 -17013.066896      7.792099
PR18  -7311.330794  24375.976340  -2026.836786     96.154952
PR19   -522.509110  22052.037023  12795.465977   -243.102572
PR20   9421.349924   4588.750899  23261.236467    -98.140009
PR21  11655.027400 -15892.636004  16211.532316    -29.528285
PR22   7718.373489 -24286.150244   1080.589791    111.058374
PR24 -10228.122562  -3694.162840 -23061.078211    -20.058951
PR25  12614.305953 -14325.072800  16938.458324     43.180478
PE02 -13359.767421 -15941.446661  21059.789849     54.975405
PE03 -12901.783042 -26630.305578   1014.499873    -44.826220
PE04  19664.130301  13233.656296 -17722.693986   -186.787740
PE05   1458.736775 -24581.456885 -16427.670620      7.946324
PE07 -15115.083087   7780.483270  24235.062069    -66.529206
PE08 -19566.829135 -13669.965342  17513.815595   -128.517210
PE09  15038.276150  -7602.565759 -24335.093230   -116.344852
PE10  20838.153514  -7650.216809  19575.014981   -555.234139
PE11  21284.520403 -17080.730483  11441.055711   2698.538480
PE12  17361.673253   2244.819184  23857.645317   -653.485751
PE13 -21333.806538  16551.589811 -12129.427999    -19.413877
PE14 -19009.064088 -23354.088741 -11873.396274    307.990495
PE15 -17107.550086  -2576.324177 -24017.891284    -44.190759
PE18  13351.470788  17545.948714   8276.784684    400.182288
PE19  11213.998843  27354.495575   1462.546855  -1876.299740
PE21  -8026.612659  15648.206409 -23804.177878   -545.978416
PE24  26274.325659  -5826.686935  12335.678080   -259.394769
PE25   8424.177769 -15562.583975  23738.657756 999999.999999
PE26 -12501.263107  25796.250153   7357.704013    189.402000
PE27 -25891.904738   6292.539956 -12878.826925   -121.668826
PE30 -28128.226002  -7048.211147   5918.472893   -408.623464
PE31  28315.238649   6647.154788  -5483.549419     -2.404484
PE33   2396.162232  20329.159074  21371.790690     -1.662230
PE34  -2975.920381 -19929.295896 -21698.627406    -60.916456
PE36  13013.310574 -25729.567331  -6699.422317    -99.323180
PC06 -13351.516470  40156.818458    445.627024    848.658997
PC07  -3570.134450  29882.074442 -29375.552462     87.690614
PC08 -16865.072040  22359.511149  31413.166993    394.312759
PC09  -8843.874915  40601.450820  -8320.460531    306.528340
PC10   3319.221579  32153.738566 -26477.447032   -142.026884
PC11   -194.690421  27673.592050   3530.369753    773.234656
PC12 -11088.512771  21327.848976 -14124.035438    861.179566
PC13  -8920.655708  23843.461378  33671.577570    332.166861
PC14   7541.728282  19758.357932  18183.895934    207.980707
PC16 -14839.778866  39537.744967   3102.470211    -30.808932
PC19 -16409.360634 -19700.422526 -11030.698318   -957.680584
PC20    546.583592 -17367.990645 -21839.450197    370.088409
PC21 -18682.424102   4234.283239  20309.468095   -947.676343
PC22 -24824.829489 -10881.008111   6693.647241   -356.512595
PC23  22142.161662   2452.818264 -16795.683476   -909.400117
PC24 -13645.594478  19076.632374 -15107.513696    271.342019
PC25   7277.587544  14602.084473 -22644.834205    186.945786
PC26 -24702.608413  12940.084015    264.809381   -161.629306
PC27  14504.786529 -13765.209964  19442.062572    182.702532
PC28  15370.116607   5759.651577  22569.867301    136.574669
PC29  -7575.086089 -24132.487118 -11802.414967    159.303974
PC30   5126.078817 -26704.133342   6233.168660     -3.374144
PC32  18699.748533  -4318.863928 -20245.885863   -532.977310
PC33  16401.258114  19621.963039  11141.730915   -934.441629
PC34  -4292.435131  27138.727674  -4936.406959    234.570710
PC35 -15614.482749  -5499.743725 -22474.453574    570.104323
PC36  -6077.864846 -15193.015977  22634.021849   -282.388721
PC37  25267.566180 -11816.624293  -1155.836731   -805.614421
PC38 -23927.088343  23757.714342  25221.216933     97.380580
PC39 -15975.790303  37996.369360   9502.123559     -4.298359
PC40  -7292.182150  24635.049219 -33350.097362    -32.543408
PC41  24797.263159  11290.228586  -5959.302147   -889.958373
PC42  -2135.723990  16733.029009  22261.567746   -581.674318
PC43   7054.633205  24655.257932  11010.721839     34.706447
PC44 -14176.471320  14115.913114 -19479.708448    196.479208
PC45 -22386.346575  -2008.000826  16532.997228    -12.679943
PC46  12484.438519 -19092.424151  16103.727607    -75.729595
PJ02 -31789.405554  14567.586323 -18941.135401     -2.407534
PJ03 -23821.940941  32182.101045  -8433.703238     -0.913035
PJ04 -24562.491631  27807.847707  25853.941652     70.506731
EOF
